CCSDS_OMM_VERS = 2.0
CREATION_DATE  = 
ORIGINATOR     = 

OBJECT_NAME    = IDEFIX & ARIANE 42P R/B
OBJECT_ID      = 2002-021B
CENTER_NAME    = EARTH
REF_FRAME      = TEME
TIME_SYSTEM    = UTC
MEAN_ELEMENT_THEORY = SGP/SGP4

EPOCH          = 2026-03-01T17:38:00.621888
MEAN_MOTION    = 14.31019403
ECCENTRICITY   = .001112
INCLINATION    = 98.5862
RA_OF_ASC_NODE = 359.4365
ARG_OF_PERICENTER = 206.3846
MEAN_ANOMALY   = 153.6772

EPHEMERIS_TYPE = 0
CLASSIFICATION_TYPE = U
NORAD_CAT_ID   = 27422
ELEMENT_SET_NO = 999
REV_AT_EPOCH   = 24288
BSTAR          = .13624E-3
MEAN_MOTION_DOT = .315E-5
MEAN_MOTION_DDOT = 0

CCSDS_OMM_VERS = 2.0
CREATION_DATE  = 
ORIGINATOR     = 

OBJECT_NAME    = AQUA
OBJECT_ID      = 2002-022A
CENTER_NAME    = EARTH
REF_FRAME      = TEME
TIME_SYSTEM    = UTC
MEAN_ELEMENT_THEORY = SGP/SGP4

EPOCH          = 2026-03-01T21:01:24.746304
MEAN_MOTION    = 14.61953920
ECCENTRICITY   = .0000713
INCLINATION    = 98.4160
RA_OF_ASC_NODE = 28.0994
ARG_OF_PERICENTER = 53.4417
MEAN_ANOMALY   = 334.8110

EPHEMERIS_TYPE = 0
CLASSIFICATION_TYPE = U
NORAD_CAT_ID   = 27424
ELEMENT_SET_NO = 999
REV_AT_EPOCH   = 26759
BSTAR          = .2464E-3
MEAN_MOTION_DOT = .1185E-4
MEAN_MOTION_DDOT = 0

CCSDS_OMM_VERS = 2.0
CREATION_DATE  = 
ORIGINATOR     = 

OBJECT_NAME    = CZ-4B R/B
OBJECT_ID      = 2002-024C
CENTER_NAME    = EARTH
REF_FRAME      = TEME
TIME_SYSTEM    = UTC
MEAN_ELEMENT_THEORY = SGP/SGP4

EPOCH          = 2026-03-01T17:40:02.230752
MEAN_MOTION    = 14.14545969
ECCENTRICITY   = .005084
INCLINATION    = 98.8857
RA_OF_ASC_NODE = 114.1823
ARG_OF_PERICENTER = 46.5747
MEAN_ANOMALY   = 65.6183

EPHEMERIS_TYPE = 0
CLASSIFICATION_TYPE = U
NORAD_CAT_ID   = 27432
ELEMENT_SET_NO = 999
REV_AT_EPOCH   = 22811
BSTAR          = .468E-4
MEAN_MOTION_DOT = .47E-6
MEAN_MOTION_DDOT = 0

CCSDS_OMM_VERS = 2.0
CREATION_DATE  = 
ORIGINATOR     = 

OBJECT_NAME    = MIDORI II (ADEOS-II)
OBJECT_ID      = 2002-056A
CENTER_NAME    = EARTH
REF_FRAME      = TEME
TIME_SYSTEM    = UTC
MEAN_ELEMENT_THEORY = SGP/SGP4

EPOCH          = 2026-03-01T19:45:19.764288
MEAN_MOTION    = 14.29277780
ECCENTRICITY   = .000186
INCLINATION    = 98.7754
RA_OF_ASC_NODE = 19.2472
ARG_OF_PERICENTER = 54.3439
MEAN_ANOMALY   = 305.7915

EPHEMERIS_TYPE = 0
CLASSIFICATION_TYPE = U
NORAD_CAT_ID   = 27597
ELEMENT_SET_NO = 999
REV_AT_EPOCH   = 20917
BSTAR          = .14655E-3
MEAN_MOTION_DOT = .327E-5
MEAN_MOTION_DDOT = 0

CCSDS_OMM_VERS = 2.0
CREATION_DATE  = 
ORIGINATOR     = 

OBJECT_NAME    = H-2A R/B
OBJECT_ID      = 2002-056E
CENTER_NAME    = EARTH
REF_FRAME      = TEME
TIME_SYSTEM    = UTC
MEAN_ELEMENT_THEORY = SGP/SGP4

EPOCH          = 2026-03-01T19:41:47.419872
MEAN_MOTION    = 14.33754541
ECCENTRICITY   = .0070007
INCLINATION    = 98.3188
RA_OF_ASC_NODE = 21.4865
ARG_OF_PERICENTER = 184.0894
MEAN_ANOMALY   = 233.4046

EPHEMERIS_TYPE = 0
CLASSIFICATION_TYPE = U
NORAD_CAT_ID   = 27601
ELEMENT_SET_NO = 999
REV_AT_EPOCH   = 21298
BSTAR          = .1206E-3
MEAN_MOTION_DOT = .303E-5
MEAN_MOTION_DDOT = 0

CCSDS_OMM_VERS = 2.0
CREATION_DATE  = 
ORIGINATOR     = 

OBJECT_NAME    = CZ-4B R/B
OBJECT_ID      = 2003-049C
CENTER_NAME    = EARTH
REF_FRAME      = TEME
TIME_SYSTEM    = UTC
MEAN_ELEMENT_THEORY = SGP/SGP4

EPOCH          = 2026-03-01T13:03:18.739296
MEAN_MOTION    = 14.55010732
ECCENTRICITY   = .0047006
INCLINATION    = 98.6871
RA_OF_ASC_NODE = 55.1297
ARG_OF_PERICENTER = 256.3092
MEAN_ANOMALY   = 103.2868

EPHEMERIS_TYPE = 0
CLASSIFICATION_TYPE = U
NORAD_CAT_ID   = 28059
ELEMENT_SET_NO = 999
REV_AT_EPOCH   = 18541
BSTAR          = .12731E-3
MEAN_MOTION_DOT = .504E-5
MEAN_MOTION_DDOT = 0

CCSDS_OMM_VERS = 2.0
CREATION_DATE  = 
ORIGINATOR     = 

OBJECT_NAME    = CZ-2C R/B
OBJECT_ID      = 2004-012C
CENTER_NAME    = EARTH
REF_FRAME      = TEME
TIME_SYSTEM    = UTC
MEAN_ELEMENT_THEORY = SGP/SGP4

EPOCH          = 2026-03-01T17:44:36.806496
MEAN_MOTION    = 15.63451390
ECCENTRICITY   = .0013561
INCLINATION    = 97.7255
RA_OF_ASC_NODE = 125.2843
ARG_OF_PERICENTER = 341.9053
MEAN_ANOMALY   = 18.1720

EPHEMERIS_TYPE = 0
CLASSIFICATION_TYPE = U
NORAD_CAT_ID   = 28222
ELEMENT_SET_NO = 999
REV_AT_EPOCH   = 20303
BSTAR          = .63199E-3
MEAN_MOTION_DOT = .58766E-3
MEAN_MOTION_DDOT = 0

CCSDS_OMM_VERS = 2.0
CREATION_DATE  = 
ORIGINATOR     = 

OBJECT_NAME    = SL-16 R/B
OBJECT_ID      = 2004-021B
CENTER_NAME    = EARTH
REF_FRAME      = TEME
TIME_SYSTEM    = UTC
MEAN_ELEMENT_THEORY = SGP/SGP4

EPOCH          = 2026-03-01T19:40:53.563296
MEAN_MOTION    = 14.14599764
ECCENTRICITY   = .0003632
INCLINATION    = 70.9991
RA_OF_ASC_NODE = 249.0084
ARG_OF_PERICENTER = 26.0617
MEAN_ANOMALY   = 334.0687

EPHEMERIS_TYPE = 0
CLASSIFICATION_TYPE = U
NORAD_CAT_ID   = 28353
ELEMENT_SET_NO = 999
REV_AT_EPOCH   = 12172
BSTAR          = -.92989E-5
MEAN_MOTION_DOT = -.66E-6
MEAN_MOTION_DDOT = 0

CCSDS_OMM_VERS = 2.0
CREATION_DATE  = 
ORIGINATOR     = 

OBJECT_NAME    = CZ-4B R/B
OBJECT_ID      = 2004-035C
CENTER_NAME    = EARTH
REF_FRAME      = TEME
TIME_SYSTEM    = UTC
MEAN_ELEMENT_THEORY = SGP/SGP4

EPOCH          = 2026-03-01T15:54:56.337120
MEAN_MOTION    = 15.28890487
ECCENTRICITY   = .0032008
INCLINATION    = 97.3514
RA_OF_ASC_NODE = 95.0026
ARG_OF_PERICENTER = 0.5839
MEAN_ANOMALY   = 359.5433

EPHEMERIS_TYPE = 0
CLASSIFICATION_TYPE = U
NORAD_CAT_ID   = 28415
ELEMENT_SET_NO = 999
REV_AT_EPOCH   = 17868
BSTAR          = .34555E-3
MEAN_MOTION_DOT = .9774E-4
MEAN_MOTION_DDOT = 0

CCSDS_OMM_VERS = 2.0
CREATION_DATE  = 
ORIGINATOR     = 

OBJECT_NAME    = CZ-2C R/B
OBJECT_ID      = 2004-046B
CENTER_NAME    = EARTH
REF_FRAME      = TEME
TIME_SYSTEM    = UTC
MEAN_ELEMENT_THEORY = SGP/SGP4

EPOCH          = 2026-03-01T18:32:22.329888
MEAN_MOTION    = 14.26989175
ECCENTRICITY   = .0139417
INCLINATION    = 98.1988
RA_OF_ASC_NODE = 336.2487
ARG_OF_PERICENTER = 177.8033
MEAN_ANOMALY   = 182.3791

EPHEMERIS_TYPE = 0
CLASSIFICATION_TYPE = U
NORAD_CAT_ID   = 28480
ELEMENT_SET_NO = 999
REV_AT_EPOCH   = 10737
BSTAR          = .69106E-4
MEAN_MOTION_DOT = .145E-5
MEAN_MOTION_DDOT = 0

CCSDS_OMM_VERS = 2.0
CREATION_DATE  = 
ORIGINATOR     = 

OBJECT_NAME    = ARIANE 5 R/B
OBJECT_ID      = 2004-049H
CENTER_NAME    = EARTH
REF_FRAME      = TEME
TIME_SYSTEM    = UTC
MEAN_ELEMENT_THEORY = SGP/SGP4

EPOCH          = 2026-03-01T09:55:43.488192
MEAN_MOTION    = 14.85247794
ECCENTRICITY   = .008454
INCLINATION    = 98.2613
RA_OF_ASC_NODE = 228.5617
ARG_OF_PERICENTER = 18.7373
MEAN_ANOMALY   = 341.6920

EPHEMERIS_TYPE = 0
CLASSIFICATION_TYPE = U
NORAD_CAT_ID   = 28499
ELEMENT_SET_NO = 999
REV_AT_EPOCH   = 14456
BSTAR          = .10998E-3
MEAN_MOTION_DOT = .941E-5
MEAN_MOTION_DDOT = 0

CCSDS_OMM_VERS = 2.0
CREATION_DATE  = 
ORIGINATOR     = 

OBJECT_NAME    = CZ-2D R/B
OBJECT_ID      = 2005-024B
CENTER_NAME    = EARTH
REF_FRAME      = TEME
TIME_SYSTEM    = UTC
MEAN_ELEMENT_THEORY = SGP/SGP4

EPOCH          = 2026-03-01T13:28:34.368096
MEAN_MOTION    = 15.59302460
ECCENTRICITY   = .0007005
INCLINATION    = 97.3599
RA_OF_ASC_NODE = 75.4145
ARG_OF_PERICENTER = 66.5213
MEAN_ANOMALY   = 293.6779

EPHEMERIS_TYPE = 0
CLASSIFICATION_TYPE = U
NORAD_CAT_ID   = 28738
ELEMENT_SET_NO = 999
REV_AT_EPOCH   = 13851
BSTAR          = .57095E-3
MEAN_MOTION_DOT = .45028E-3
MEAN_MOTION_DDOT = 0

